#dP2021  2 13  6  0  0.00000000      96 __u+U ITR00 EXT  IAC
## 2144 540000.00000000   900.00000000 59258 0.2500000000000
+  117   C06C07C08C09C10C11C12C13C14C16C19C20C21C22C23C24C25
+        C26C27C28C29C30C32C33C34C35C36C37C38C39C40C41C42C43
+        C44C45C46E01E02E03E04E05E07E08E09E11E12E13E14E15E18
+        E19E21E24E25E26E27E30E31E33E36G01G02G03G04G05G06G07
+        G08G09G10G11G12G13G14G15G16G17G18G19G20G21G22G23G24
+        G25G26G27G28G29G30G31G32J01J02J03R01R02R03R04R05R07
+        R08R09R11R12R13R14R15R16R17R18R19R20R21R22R24  0  0
++         8 11 10  9 11  9 10 10  9  9  8  8  8  8  9  9  8
++         8 10  8  8  9  8  7 10  9  9  8 11 10  8  9 11 10
++         9  9  9  8  8  8  8  8  8  8  8  8  9  7  8  8  7
++         8  8  9  8  8  7  8  9  8  8  7  7  7  8  7  8  8
++         7  7  7  9  8  8  8  8  6  8  8  8  7  7  8  7  8
++         7  8  8  8  8  8  8  8 10 10 11 10  9  9  8  9  8
++         8  9  8 10  8  8  9 10  7  8  8  8  9  8  8  0  0
%c M  cc GPS ccc cccc cccc cccc cccc ccccc ccccc ccccc ccccc
%c cc cc ccc ccc cccc cccc cccc cccc ccccc ccccc ccccc ccccc
%f  0.0000000  0.000000000  0.00000000000  0.000000000000000
%f  0.0000000  0.000000000  0.00000000000  0.000000000000000
%i    0    0    0    0      0      0      0      0         0
%i    0    0    0    0      0      0      0      0         0
/* IAC                                ULTRA-RAPID PREDICTION
/* S/V CLOCKS ARE ALIGNED TO GNSS TIME                      
/* G:C1WC2W R:C1PC2P E:C1XC5X C:C2IC6I J:C1CC2S             
/* PCV:IGS14_2134 OL/AL:FES2004  NONE     YN ORB:CoN CLK:CoN
*  2021 02 14  0 15  0.00000000
PC06  -8450.468502  23884.427970  34183.370765     89.506924
PC07 -24184.214509  30749.929061 -16091.540102   -323.965149
PC08 -10626.226156  36949.167574 -16742.757063   -914.534351
PC09   6250.686294  30058.719702  29349.463421    735.095487
PC10 -11410.549834  31683.289878 -25410.443656    -86.914234
PC11 -23142.153637 -10738.471151 -11285.000387   -924.865611
PC12 -17607.407069 -20767.262453   6196.958106    796.428686
PC13  -1468.223027  41927.356658  -2273.626377    140.448634
PC14 -25065.413632    -83.601540 -12295.578723    130.305778
PC16  -6366.980075  24120.394594  34110.187116   -695.010380
PC19  26768.699231  -7005.018442   3597.891459    727.007841
PC20  20211.938744   6134.349745  18240.588739   -915.389254
PC21  -1256.753695 -16217.048962 -22655.991171   -837.172782
PC22  17966.497889 -16438.368437 -13603.955435   -878.804032
PC23 -11414.186957  23661.865498   9397.197369   -876.183659
PC24 -12052.738626 -14689.316417  20433.978651   -760.004911
PC25 -16552.762720   7537.153564  21150.333272   -932.559375
PC26  -1668.989806 -26561.667520   8445.860863    948.874350
PC27   9864.413418  21858.213802 -14303.115464    482.925773
PC28  -8109.659821  13853.806668 -22820.534599   -109.809364
PC29  21340.340114   1400.114438  17926.831222    352.086916
PC30  22460.861449  16448.649543   2115.052274    444.335340
PC32   1354.476229  16245.210670  22665.410349   -894.358674
PC33 -26743.647997   7122.548781  -3627.991862   -960.871452
PC34 -22617.325033 -16083.798685  -2778.935147   -740.565024
PC35   7978.097818 -13950.790254  22810.770200   -419.141436
PC36  16727.999739  -6811.695228 -21255.720242   -756.469824
PC37    492.696277  26802.390479  -7700.016929   -864.931782
PC38  -9854.373624  38394.467990 -14169.897670    129.927383
PC39  -4229.475714  24618.234661  33992.872165     28.442928
PC40 -18809.087299  27454.973179 -25967.481443    131.320596
PC41 -18105.904532  16478.550483  13432.034950   -930.106662
PC42 -19752.130758  -6575.276049 -18545.778575   -866.540930
PC43 -21570.973715  -1829.042948 -17596.927367   -596.748729
PC44 -10327.056802 -21536.787486  14397.993325     37.442785
PC45  11280.476504 -23756.358053  -9376.310659    361.545446
PC46  12413.890441  13715.950505 -20880.581243    406.512874
PE01 -14262.819464  -8471.984228  24511.004924  -1045.617959
PE02  14364.962659   8334.202778 -24507.573965    198.230650
PE03  25544.960733  10683.146386  10446.937722   -398.360705
PE04 -28485.278469   1956.770287   7805.413757   -709.313025
PE05   7569.805925  17242.265910  22837.867703   -304.768140
PE07  14642.489649 -13676.867723 -21783.067076   -500.531723
PE08  28371.540084  -2268.680256  -8114.020100   6047.343197
PE09 -14416.283109  13686.033715  21937.879060   5766.234413
PE11  -5915.606370  20421.145405 -20602.545701   6325.425116
PE12 -17080.633785    374.371450 -24160.530368   5357.364936
PE13   6100.514515 -20075.824012  20886.662118    412.028448
PE14 -18840.991720  12833.893755 -23273.556997  -1329.078055
PE15  17015.869868   -426.824012  24230.866728    829.426098
PE18  13069.061314  -9444.710204  16898.215903  -1452.892135
PE19 -24129.973728 -11805.851859 -12423.544460    203.184512
PE21   1382.066743 -22772.374925  18860.755626   -648.327099
PE24 -17212.839933  24016.795912  -1464.596791   -742.320327
PE25  -1525.085715  22842.604262 -18754.821306   -526.390813
PE26  -8687.762757 -27929.625525   4553.504824   2151.080542
PE27  16751.340962 -24326.596365   2079.450034     30.393306
PE30  22213.471851 -10730.833928 -16385.711841   3183.194356
PE31 -22177.201705  11561.169115  15828.470194   -478.268496
PE33 -17896.315192 -19451.993521 -13300.606737   -465.678353
PE36   8401.612453  27896.576846  -5244.858791    440.962404
PG01  14092.220786  -4062.827723  21887.514405    761.705455
PG02 -13628.770878 -18996.305616 -11917.122273   -576.590678
PG03  22301.033664 -11679.780736   8221.336297    -82.346266
PG04  23368.116186   -412.676871 -12662.332435   -180.042139
PG05 -16514.548852  -4500.500531 -20506.350071    -33.632277
PG06  -5660.894193 -25890.710549  -1187.292566     -2.896029
PG07   8134.181546 -19093.275422 -15953.562605     57.808751
PG08  25709.970019   4266.339220   5890.680171    -10.210439
PG09  14620.162102  -9996.162562 -19860.546760   -322.645723
PG10  -6373.107439  20108.114270  16083.203326    -60.934083
PG11  19225.858837   2496.475330  17559.263327    -25.343740
PG12 -22644.379639   7034.159779  11557.584924     -0.758726
PG13 -22802.686718 -13526.300659  -2606.117765     96.930365
PG14   8857.343058 -20157.707246  14839.717772     96.645319
PG15 -26028.389691  -1671.890731   5573.617230   -169.589624
PG16  14685.124906   7222.779839 -21249.468248   -279.744181
PG17  -3048.293128 -16476.953120  21039.156420    393.730658
PG18  -6340.434828  21537.996548 -14149.991796    347.149345
PG19 -11420.473099 -17423.888547  16246.016140    -38.838107
PG20 -14470.117634  21610.116354   4566.633218    524.706357
PG21  16584.849501   4415.605255  21107.003876     95.360506
PG22  20858.863069  -4804.940037  15813.815112   -679.767288
PG23 -15479.593622  20425.889710   6871.070307    118.340386
PG24 -16192.838389  -1205.063303  20829.095828      2.367842
PG25 -19550.896704  17734.369853  -1003.365258     79.972902
PG26   5896.682565  15264.000966 -20928.886886     44.522369
PG27  22632.961658  12694.531862  -6665.331358    -75.811537
PG28   6513.351473 -19321.065535  17683.807245    615.930436
PG29 -15264.405184   8029.661656 -20250.338373   -294.478446
PG30    498.294902 -25694.975634  -6180.102613   -384.349186
PG31   7003.072129  25034.415813  -4127.397799    -99.931767
PG32   5259.160766  16742.726199  20080.461435     18.638659
PJ01 -30408.393025  25627.576072  19127.195989   -341.030478
PJ02 -32993.532220  25055.941817  12770.782355      1.858177
PJ03 -23568.652681  18249.372900 -25214.557569     -0.710162
PR01  25177.556274  -3831.518888   1331.550358     74.967489
PR02  14718.956035 -10740.117797 -17841.186237    466.926847
PR03  -4007.151172 -10389.551666 -22904.816220     30.789422
PR04 -20203.913021  -3978.285131 -15023.363500     73.933290
PR05 -25069.336406   4457.990103   1301.846002     66.478463
PR07   4797.424987  10259.746029  22894.631814    -42.427361
PR08  20234.985064   4078.583664  15053.784335    -57.374152
PR09 -10583.808110  22916.085340   3921.457374    -21.855430
PR11   8294.448235   8375.787229 -22614.831891      3.406653
PR12  13591.824846 -10424.761869 -18891.683811    204.799793
PR13  10659.901815 -22745.784911  -4474.836633    -50.673756
PR14   1417.076806 -21747.588638  13254.966651     60.975367
PR15  -8465.391251  -8158.646502  22651.645931    105.425675
PR16 -13495.901264  11401.245890  18311.572004    -11.273569
PR17 -10509.663292 -20751.348320  10521.522930    399.858639
PR18 -17470.867674 -17413.052755  -6361.636166     66.568667
PR19 -15324.597437  -5901.396877 -19512.622332   -131.932598
PR20  -3303.247352  12041.824514 -22238.212784   -433.322907
PR21  11182.680103  20872.315151  -9452.490946   -187.515549
PR22  17580.807030  16976.067897   7475.667432    -97.735352
PR24   2992.718870 -12871.718794  21841.838053     31.446416
EOF
